STARLINK-4037           
1 52663U 22053H   26068.47411536  .00005262  00000+0  34879-3 0  9995
2 52663  53.2175 155.0920 0001630 112.4022 247.7144 15.08807028211014
DISKSAT D               
1 67221U 25305C   26068.55257179  .00011599  00000+0  76841-3 0  9999
2 67221  45.0023 251.6339 0003712 319.2749  40.7848 15.07416577 12277
